#dP2018  9 30  0  0  0.00000000      96 __u+U ITR00 FIT  IAC
## 2021      0.00000000   900.00000000 58391 0.0000000000000
+   91   C01C02C04C05C06C07C08C09C10C11C12C13C14E01E02E03E04
+        E05E07E08E09E11E12E14E18E19E21E24E25E26E27E30E31G01
+        G02G03G05G06G07G08G09G10G11G12G13G14G15G16G17G18G19
+        G20G21G22G23G24G25G26G27G28G29G30G31G32J01J02J03J07
+        R01R02R03R04R05R07R08R09R10R11R13R14R15R16R17R18R19
+        R20R21R22R23R24R26  0  0  0  0  0  0  0  0  0  0  0
++         0 11 12 12  9  9  9  8  8  8  8  8  8  6  6  6  6
++         6  6  6  6  6  7  6  6  6  7  7  7  6  6  6  7  3
++         3  3  3  3  3  3  3  3  3  3  3  3  3  3  3  3  3
++         3  3  3  3  3  3  3  4  3  3  3  3  3 11 11 11 19
++         5  5  5  5  5  5  5  5  5  5  6  5  6  5  5  5  5
++         5  5  5  6  6  9  0  0  0  0  0  0  0  0  0  0  0
%c M  cc GPS ccc cccc cccc cccc cccc ccccc ccccc ccccc ccccc
%c cc cc ccc ccc cccc cccc cccc cccc ccccc ccccc ccccc ccccc
%f  0.0000000  0.000000000  0.00000000000  0.000000000000000
%f  0.0000000  0.000000000  0.00000000000  0.000000000000000
%i    0    0    0    0      0      0      0      0         0
%i    0    0    0    0      0      0      0      0         0
/* INFORMATION & ANALYSIS CENTER (IAC) OF MCC   (RAPID DATA)
/* S/V CLOCKS ARE ALIGNED TO GPS & GLONASS TIME RESPECTIVELY
/* USING THE BROADCAST EPHEMERIS                            
/* PCV:IGS14_2000 OL/AL:FES2004  NONE     YN ORB:CoN CLK:CoN
*  2018 09 30  1 30  0.00000000
PC01      0.000000      0.000000      0.000000 999999.999999
PC02   4454.281640  41953.582713    502.949566      9.320170
PC04 -39608.797135  14363.691061    241.706044   -285.113711
PC05  21900.159174  36032.774670    476.830192   -218.331480
PC06 -24920.291268  26652.341480 -21118.801020    338.079816
PC07 -12626.435300  37945.605868 -12425.017443     -9.232196
PC08  -9115.314199  20613.550334  35712.974593    545.040701
PC09  -9074.850009  26876.524226 -31119.054343    157.056108
PC10  -3450.430373  41802.416999   -578.538249   -113.803345
PC11 -26601.641843  -6646.022977  -4890.810484   -702.905920
PC12 -12508.786473 -14801.399668 -19985.381214    123.617518
PC13   6133.657464  29240.905311  29871.515884   -302.038631
PC14 -16420.198512  -4052.490054  22258.405208    499.395930
PE01  -6423.556573  26596.878672 -11270.017797   -445.626916
PE02   6409.650642 -26622.104842  11251.691729     29.349228
PE03  15961.535194 -21085.883167  13312.901728    -82.742384
PE04   3770.845887  17423.346287 -23625.639959   -127.675632
PE05  26435.397909 -12403.013745  -4857.061287    185.302529
PE07 -21409.979160  -3516.321372  20137.547855    -47.551392
PE08  -3880.562679 -17262.042354  23735.654566   6492.723254
PE09  21383.376495   3210.011491 -20215.316191   6662.100375
PE11  26699.642796  12675.731965  -1541.466734   5629.425174
PE12  14241.960526  19922.171950  16618.772663   5164.529769
PE14 -27546.160011  -6218.814887 -10899.674281   6511.999371
PE18  26406.932289  -5109.105712  -3500.097549   5869.109156
PE19 -17520.220828  20755.186733 -11766.039235    -11.779871
PE21 -15204.858463   9080.367858 -23709.880879   -497.097433
PE24  14963.399706  12841.228083  22076.285306   6466.662698
PE25  15215.699754  -9078.009511  23726.619297   2027.559873
PE26 -23276.484411   1690.348870  18198.219063   5420.340595
PE27 -14809.278400 -13513.265612 -21769.650872    620.972505
PE30  -5984.975006 -27948.893748  -7699.383458   5472.457249
PE31   5756.394457  28147.339944   7106.300772   1022.299267
PG01 -20388.552664 -10448.017014  13524.235182    -94.271831
PG02  14248.527253  21850.970442   6153.743482    -16.165766
PG03 -15872.382778     77.217551  21250.712724    142.850119
PG05   6314.905189  19260.202885 -17174.339161     -1.448574
PG06   1167.217994  20040.054740  17410.717640    356.680487
PG07 -15355.077661   4483.933471 -21033.219724    115.343647
PG08 -20420.717901  -7114.515123 -15480.423684   -116.873522
PG09 -25404.707138   7003.873201  -3378.085151    503.579532
PG10  10945.503340 -23937.272763  -2719.498692    178.512181
PG11 -24575.151380  -8895.142930   3506.294993   -714.044032
PG12  13357.424815   5865.387571  22004.063045    303.325536
PG13  13123.387071  12746.365490 -19371.878776    -88.139119
PG14   3118.578328 -15453.109794  21657.860216    -97.031992
PG15  23550.437426   3517.505693 -12394.458422   -344.501169
PG16  -2467.815749 -20490.841545 -16630.986498      6.618539
PG17 -13565.321397  13903.387477  18451.849987    -49.956001
PG18 -19805.591891 -17076.975645   4614.861402     62.855711
PG19  -3262.701223  14698.713739  21597.940440   -398.082017
PG20  14204.890969 -18781.241222 -12302.785288    516.567638
PG21  12172.424757  -9140.123346 -20970.815132   -329.099927
PG22 -13998.471041  -8571.023924  21118.678934   -533.371676
PG23 -26227.686661    593.148593   5697.969805   -209.790937
PG24  21155.166318  13238.106216   9395.913949    -56.076241
PG25  16732.629249  -9031.061655  18260.570562   -654.511973
PG26   3292.893820 -25209.084583  -7437.681367     -5.177268
PG27 -10290.267852 -12661.275982 -21097.125052    339.801513
PG28 -13577.828759  22420.988450  -3832.128164    747.192852
PG29  25999.441398  -4610.568803  -2900.741195    366.644235
PG30  -7411.419974  15032.809698 -20548.879898     17.090718
PG31  -2406.793024 -21067.743369  15754.319758     90.118129
PG32  11977.373601 -15127.376536  18253.579358   -408.504716
PJ01 -29967.968950  29397.124625   8976.837157   -328.596333
PJ02 -19077.718756  24011.722283 -24703.255368      0.077283
PJ03 -30295.650519  26687.456017  17413.475763      0.133350
PJ07 -25331.936588  33703.402368    -26.161465    126.073128
PR01   9450.475008 -18724.443008  14527.552927     32.728394
PR02  -7674.577818  -7780.572445  23083.485531    332.076723
PR03 -18602.878858   6743.148868  16159.218697    144.588647
PR04 -18481.873384  17581.706438   -626.512927    278.070874
PR05  -8057.853137  17943.359739 -16245.620041     11.862716
PR07  18716.035833  -7088.432313 -15761.833033    -48.240976
PR08  18709.197900 -17335.194946     20.322907     21.109022
PR09  10516.322838  19486.793500  12617.749356     30.946865
PR10  11436.083929   3984.132086  22424.184305     32.603092
PR11   6270.600034 -15164.475835  19569.953124    -42.418316
PR13 -10538.527748 -19805.719272 -12160.590194    -15.192428
PR14 -11723.838883  -4062.022984 -22270.835155     31.491220
PR15  -7874.441744  10938.635605 -21661.802058    -17.068402
PR16   2772.087074  24603.891086  -6372.444942    102.804276
PR17 -24420.074138  -5254.317656   5061.367614    168.273228
PR18 -16361.062606   3998.442142  19186.861973     25.416409
PR19    707.538170  11146.357144  22929.519804    -60.093834
PR20  18620.541413  12214.264132  12405.940562   -353.971482
PR21  24409.735972   5051.349218  -5499.039477     -6.212518
PR22  14321.238481  -5139.532700 -20436.037796    -64.127788
PR23  -5495.772185 -12101.445247 -21781.889728    181.357848
PR24 -19660.164204 -11660.967588 -11356.282869   -171.977491
PR26  17888.895069  12124.971829  13583.321512     50.693512
EOF
